141P-A/Machholz,e,13.9429,153.5453,241.8827,3.057620,0.1843439,0.73607084,229.2695,05/14.0/2024,2000,g 12.0,12.0
# From MPC 24216
141P-B/Machholz,e,13.9868,153.6210,241.7719,3.056007,0.1844899,0.73582906,230.6377,05/14.0/2024,2000,g  9.0,4.0
# From MPC 37026
141P-D/Machholz,e,13.8349,153.2722,242.1304,3.066083,0.1835812,0.73702462,225.1783,05/14.0/2024,2000,g  9.0,4.0
# From MPEC 2015-R12
141P-E/Machholz,e,12.8152,246.1856,149.2667,3.012914,0.1884620,0.75023267,359.9529,09/19.0/1994,2000,g  9.0,4.0
# From MPEC 2015-R12
141P-F/Machholz,e,12.7898,246.1881,149.2374,3.010224,0.1887147,0.75000946,359.9630,09/19.0/1994,2000,g  9.0,4.0
# From MPEC 2015-R12
141P-G/Machholz,e,12.8259,246.3146,149.0784,3.005818,0.1891298,0.74964304,359.9802,09/19.0/1994,2000,g  9.0,4.0
# From MPC 95735
141P-H/Machholz,e,12.8431,246.0900,149.4500,3.008012,0.1889230,0.74682218,359.9270,08/24.0/2015,2000,g 18.5,4.0
# From MPEC 2022-SU8
141P-I/Machholz,e,13.9428,153.4996,241.8929,3.048099,0.1852083,0.73529649,230.4574,05/14.0/2024,2000,g 17.5,4.0
# From MPEC 2024-C04
142P/Ge-Wang,e,12.2492,175.9456,174.0749,5.002554,0.0880879,0.49653482,96.6902,05/14.0/2024,2000,g  8.5,6.0
# From MPEC 2023-XP6
143P/Kowal-Mrkos,e,5.1820,243.5991,320.2775,4.269600,0.1117180,0.43058971,250.0226,05/14.0/2024,2000,g 13.5,2.0
# From MPEC 2024-JU4
144P/Kushida,e,3.9319,242.9249,216.3234,3.831216,0.1314314,0.63487545,14.3559,05/14.0/2024,2000,g  8.5,8.0
# From MPC108598
145P/Shoemaker-Levy,e,11.2774,26.8121,10.3209,4.132998,0.1173023,0.54261439,286.3601,05/14.0/2024,2000,g 13.5,4.0
# From MPC100284
146P/Shoemaker-LINEAR,e,23.1171,53.4198,317.0267,4.025983,0.1220102,0.64741640,349.8133,05/14.0/2024,2000,g 15.0,4.0
# From MPC 75720
147P/Kushida-Muramatsu,e,2.2914,92.1163,348.1022,4.010237,0.1227295,0.21236207,19.5081,05/14.0/2024,2000,g 14.0,4.0
# From MPEC 2024-JU4
148P/Anderson-LINEAR,e,3.6587,89.1967,8.0548,3.619785,0.1431133,0.55025678,100.1942,05/14.0/2024,2000,g 16.0,2.0
# From MPEC 2023-J29
149P/Mueller,e,34.2368,143.8338,30.3809,4.125045,0.1176416,0.32431916,248.5338,05/14.0/2024,2000,g  8.0,8.0
# From MPEC 2024-JU4
150P/LONEOS,e,18.5474,272.0583,246.1145,3.870248,0.1294481,0.54897274,8.0952,05/14.0/2024,2000,g 13.5,4.0
# From MPEC 2022-K19
151P/Helin,e,4.7275,143.1605,216.1375,5.764231,0.0712184,0.57323433,223.2196,05/14.0/2024,2000,g 10.0,6.0
# From MPEC 2024-JU4
152P/Helin-Lawrence,e,9.8782,91.7932,164.3801,4.483565,0.1038171,0.30796750,88.2737,05/14.0/2024,2000,g 11.5,4.0
# From MPC 46101
153P/Ikeya-Zhang,e,28.4066,93.7141,34.3601,50.35782,0.0027581,0.98999528,0.0000,03/06.3076/2002,2000,g  9.0,4.0
# From MPEC 2022-K19
154P/Brewington,e,17.6338,343.0161,47.9593,4.795277,0.0938607,0.67615050,357.3297,05/14.0/2024,2000,g  2.5,12.0
# From MPEC 2022-YN2
155P/Shoemaker,e,6.4080,97.1587,14.5195,6.571012,0.0585134,0.72732846,96.0103,05/14.0/2024,2000,g 10.0,4.8
# From MPEC 2023-J29
156P/Russell-LINEAR,e,17.2690,35.3419,0.5070,3.462502,0.1529745,0.61512912,194.6311,05/14.0/2024,2000,g 15.5,2.0
# From MPEC 2024-D33
157P/Tritton,e,12.4211,287.5161,155.1264,3.547010,0.1475402,0.55683416,90.3014,05/14.0/2024,2000,g 10.0,4.0
# From MPEC 2022-VC5
157P-B/Tritton,e,12.4248,153.9137,287.1474,3.102338,0.1803725,0.49990423,110.7208,05/14.0/2024,2000,g 15.7,4.0
# From MPEC 2024-D33
158P/Kowal-LINEAR,e,7.3051,126.6593,216.4424,5.565897,0.0750587,0.11664563,54.3576,05/14.0/2024,2000,g  9.0,4.0
# From MPEC 2024-DC6
159P/LONEOS,e,23.4896,54.9389,4.6569,5.853486,0.0695957,0.38280802,151.7712,05/14.0/2024,2000,g 10.0,4.0
# From MPEC 2022-K19
160P/LINEAR,e,15.6028,333.3711,12.7892,3.778300,0.1342021,0.52547715,218.0358,05/14.0/2024,2000,g 15.5,2.0
# From MPC 75721
161P/Hartley-IRAS,e,95.8215,1.5576,47.0644,7.713002,0.0460118,0.83565545,317.2942,05/14.0/2024,2000,g  8.5,6.0
# From MPEC 2024-JU4
162P/SidingSpring,e,27.5624,30.8871,357.2182,3.092139,0.1812656,0.58311248,227.0168,05/14.0/2024,2000,g 12.0,4.0
# From MPEC 2021-S45
163P/NEAT,e,12.7196,102.0698,349.5798,3.762833,0.1350304,0.45325155,235.2437,05/14.0/2024,2000,g 14.5,4.0
# From MPEC 2021-F20
164P/Christensen,e,16.2728,88.3049,325.8919,3.652290,0.1412070,0.54124696,306.5717,05/14.0/2024,2000,g 11.0,4.0
# From MPC 75721
165P/LINEAR,e,15.9003,0.7820,125.7755,17.81843,0.0131039,0.61823216,114.6325,05/14.0/2024,2000,g 11.5,2.0
# From MPC 75722
166P/NEAT,e,15.3799,64.4299,321.7457,13.82666,0.0191703,0.38413449,153.5236,05/14.0/2024,2000,g  5.5,4.0
# From MPEC 2023-J29
167P/CINEOS,e,19.0856,295.8022,344.6926,16.25862,0.0150341,0.26828482,126.7502,05/14.0/2024,2000,g  9.5,2.0
# From MPEC 2023-J29
168P/Hergenrother,e,21.6029,355.4151,15.0806,3.586851,0.1450889,0.62151485,252.3360,05/14.0/2024,2000,g 15.5,4.0
# From MPEC 2023-J95
169P/NEAT,e,11.2934,176.0897,218.0855,2.603370,0.2346390,0.76827407,158.2012,05/14.0/2024,2000,g 16.0,2.0
# From MPEC 2024-GJ3
170P/Christensen,e,10.1150,142.6987,225.1028,4.204834,0.1143091,0.30554433,44.8715,05/14.0/2024,2000,g 12.0,4.0
# From MPC102102
171P/Spahr,e,21.9500,101.6992,347.0657,3.552530,0.1471965,0.50260531,286.5399,05/14.0/2024,2000,g 13.5,4.0
# From MPEC 2024-JU4
172P/Yeung,e,11.2251,30.8780,209.0270,4.220591,0.1136696,0.20452676,298.8139,05/14.0/2024,2000,g 13.0,4.0
# From MPEC 2023-N01
173P/Mueller,e,16.4909,100.3557,29.1928,5.712694,0.0721843,0.26204285,63.4635,05/14.0/2024,2000,g  7.5,4.0
# From MPC 92985
174P/Echeclus,e,4.3429,173.3013,163.4406,10.75589,0.0279405,0.45585772,92.4166,05/14.0/2024,2000,g  9.4,2.0
# From MPC114608
175P/Hergenrother,e,4.9132,110.0797,75.1249,3.674254,0.1399427,0.37957324,242.2484,05/14.0/2024,2000,g 14.0,4.0
# From MPC 89015
176P/LINEAR,e,0.2313,345.6296,34.4486,3.194457,0.1726269,0.19222001,93.3679,05/14.0/2024,2000,g 15.1,2.0
# From MPEC 2020-L06
177P/Barnard,e,31.0456,271.9457,60.6300,24.51638,0.0081193,0.95467792,52.4665,05/14.0/2024,2000,g 15.0,4.0
# From MPEC 2021-F20
178P/Hug-Bell,e,11.0902,102.7968,297.9282,3.632793,0.1423453,0.48252129,198.7400,05/14.0/2024,2000,g 14.6,4.0
# From MPEC 2024-EF7
179P/Jedicke,e,19.8934,115.5144,297.1121,5.935042,0.0681661,0.30577863,48.6294,05/14.0/2024,2000,g  2.5,8.0
# From MPEC 2024-F34
180P/NEAT,e,16.8614,84.5597,94.6441,3.868377,0.1295421,0.35358587,39.7553,05/14.0/2024,2000,g 11.0,4.0
# From MPC 89012
181P/Shoemaker-Levy,e,17.4825,35.4223,336.2906,3.877784,0.1290710,0.70028971,110.5255,05/14.0/2024,2000,g 11.5,4.0
# From MPEC 2014-J10
182P/LONEOS,e,16.2319,72.4501,54.2052,2.949394,0.1945830,0.66359497,142.5498,05/14.0/2024,2000,g 18.0,4.0
# From MPEC 2023-A50
183P/Korlevic-Juric,e,18.8008,3.8357,164.5452,4.690498,0.0970232,0.10320928,239.9280,05/14.0/2024,2000,g 12.5,2.0
# From MPEC 2020-W26
184P/Lovas,e,4.5727,173.2755,186.5596,3.799296,0.1330912,0.55040055,172.4676,05/14.0/2024,2000,g 13.5,4.0
# From MPEC 2024-F91
185P/Petriew,e,14.0145,214.1152,181.8991,3.098633,0.1806961,0.69968558,55.3127,05/14.0/2024,2000,g 15.0,4.0
# From MPEC 2022-X67
186P/Garradd,e,28.6264,326.1028,269.0073,4.851796,0.0922254,0.12424915,181.4166,05/14.0/2024,2000,g  7.5,4.0
# From MPEC 2020-SI8
187P/LINEAR,e,13.6513,109.8476,131.1851,4.559176,0.1012452,0.15411692,222.2154,05/14.0/2024,2000,g  9.0,4.0
# From MPEC 2023-J29
188P/LINEAR-Mueller,e,10.5238,358.9368,26.7536,4.367761,0.1079731,0.41692480,284.5249,05/14.0/2024,2000,g 11.5,4.0
# From MPEC 2022-QD9
189P/NEAT,e,20.0944,281.6725,16.2561,2.942905,0.1952270,0.58926786,121.8496,05/14.0/2024,2000,g 19.0,4.0
# From MPEC 2020-K19
190P/Mueller,e,2.1747,335.5600,50.4516,4.227100,0.1134071,0.52221580,334.5844,05/14.0/2024,2000,g 13.0,4.0
# From MPEC 2022-X67
191P/McNaught,e,8.8390,98.1910,284.2392,3.639548,0.1419492,0.38565296,163.3057,05/14.0/2024,2000,g 13.0,4.0
# From MPC 75724
192P/Shoemaker-Levy,e,24.5849,51.6550,313.0462,6.460688,0.0600186,0.77332542,359.3775,05/14.0/2024,2000,g 15.0,4.0
# From MPEC 2024-JU4
193P/LINEAR-NEAT,e,10.6837,335.1876,8.1356,3.578256,0.1456119,0.39310549,144.6247,05/14.0/2024,2000,g 14.0,4.0
# From MPEC 2024-GJ3
194P/LINEAR,e,11.8059,349.5253,128.5666,4.119926,0.1178609,0.56320227,11.7589,05/14.0/2024,2000,g 16.0,4.0
# From MPEC 2024-GJ3
195P/Hill,e,36.4231,243.1124,250.1181,6.476835,0.0597943,0.31378789,333.4210,05/14.0/2024,2000,g  8.5,4.0
# From MPEC 2024-GJ3
196P/Tichy,e,19.3009,24.1156,12.0894,3.804531,0.1328166,0.42791978,74.7280,05/14.0/2024,2000,g 13.5,4.0
# From MPEC 2023-UR6
197P/LINEAR,e,25.6277,66.2464,189.1808,2.879939,0.2016644,0.62906297,105.4088,05/14.0/2024,2000,g 16.5,2.0
# From NK 1596
198P/ODAS,e,1.3388,358.2049,69.2881,3.594313,0.1446373,0.44476631,285.7041,05/14.0/2024,2000,g  9.0,4.0
# From MPEC 2024-GJ3
199P/Shoemaker,e,24.9387,92.3486,191.7715,5.877772,0.0691648,0.50483830,19.3967,05/14.0/2024,2000,g 10.0,4.0
# From MPEC 2022-C56
200P/Larsen,e,12.0964,234.8043,134.3673,4.950204,0.0894890,0.33196742,156.5981,05/14.0/2024,2000,g  9.0,4.0
# From MPC 93588
201P/LONEOS,e,5.7397,41.5392,19.7677,3.354765,0.1604024,0.63758732,173.6607,05/14.0/2024,2000,g 14.0,4.0
# From MPEC 2023-XP6
202P/Scotti,e,2.1415,177.3138,274.4935,4.103539,0.1185677,0.25194308,359.5956,05/14.0/2024,2000,g 13.5,4.0
# From MPEC 2021-S45
203P/Korlevic,e,2.9743,290.2505,154.8426,4.668615,0.0977062,0.31626517,149.4749,05/14.0/2024,2000,g 14.5,2.0
# From MPEC 2024-JU4
204P/LINEAR-NEAT,e,6.5965,108.4829,356.6904,3.583486,0.1452933,0.48814973,79.0411,05/14.0/2024,2000,g 14.0,4.0
# From MPEC 2023_O39
205P/Giacobini,e,15.3044,179.6127,154.1835,3.542606,0.1478154,0.56752976,125.8923,05/14.0/2024,2000,g 13.0,4.0
# From MPC 75725
206P/Barnard-Boattini,e,33.6335,202.3518,189.5543,3.490968,0.1511072,0.55142751,176.1909,05/14.0/2024,2000,g 19.0,4.0
# From MPEC 2024-JU4
207P/NEAT,e,10.2013,198.1559,272.9934,3.883811,0.1287707,0.75841643,13.2868,05/14.0/2024,2000,g 16.0,4.0
# From MPEC 2022-K19
208P/McMillan,e,4.4123,36.4003,310.6159,4.038503,0.1214433,0.37385324,347.6222,05/14.0/2024,2000,g 12.5,4.0
# From MPEC 2024-JU4
209P/LINEAR,e,21.2825,62.7697,152.4947,2.958414,0.1936938,0.67400963,348.0882,05/14.0/2024,2000,g 17.0,2.0
# From MPC105242
